[Satellite]
VERSION=1.1
NAME=DIRECTV 2 (DBS 2)
NICKNAME=DIRECTV 2 (DBS 2)
TLE1=1 23192U 94047A   11059.78784547 -.00000225  00000-0  10000-3 0  7258
TLE2=2 23192   3.9171  70.1363 0013466 209.8919 150.3163  0.98637147 70560
